ONEWEB-0349             
1 49281U 21090C   25301.48774277  .00000082  00000+0  16942-3 0  9997
2 49281  87.9191 320.6540 0001949  93.6469 266.4887 13.20770295199243
ONEWEB-0353             
1 49282U 21090D   25301.50816038 -.00000194  00000+0 -55903-3 0  9999
2 49282  87.9009 335.8581 0001827 104.3763 255.7570 13.14504210197149
ONEWEB-0356             
1 49283U 21090E   25301.48617074  .00000075  00000+0  15357-3 0  9991
2 49283  87.9191 320.6453 0000940  89.9814 270.1427 13.20770840199248
ONEWEB-0358             
1 49284U 21090F   25301.44040236  .00000013  00000+0  99182-6 0  9991
2 49284  87.9203 320.6527 0001743  90.9314 269.2019 13.20771796199960
ONEWEB-0359             
1 49285U 21090G   25301.51298904 -.00000114  00000+0 -31150-3 0  9999
2 49285  87.9192 320.6411 0001928  82.1733 277.9620 13.20769114199957
ONEWEB-0360             
1 49286U 21090H   25301.50351523 -.00000008  00000+0 -52380-4 0  9997
2 49286  87.9191 320.6521 0001934  90.0271 270.1084 13.20769059199262
ONEWEB-0361             
1 49287U 21090J   25301.48458090  .00001275  00000+0  31024-2 0  9997
2 49287  87.9188 320.6515 0001728  92.8784 267.2547 13.20781065199714
ONEWEB-0362             
1 49288U 21090K   25301.55693153  .00000019  00000+0  15861-4 0  9995
2 49288  87.9236 351.0743 0002147  98.2865 261.8511 13.19725387196368
